[{"OBJECT_NAME":"OBJECT Y","OBJECT_ID":"2023-085Y","EPOCH":"2026-03-09T22:38:54.992256","MEAN_MOTION":15.32500153,"ECCENTRICITY":0.00063298,"INCLINATION":97.4849,"RA_OF_ASC_NODE":180.8653,"ARG_OF_PERICENTER":67.4431,"MEAN_ANOMALY":292.748,"EPHEMERIS_TYPE":0,"CLASSIFICATION_TYPE":"U","NORAD_CAT_ID":57026,"ELEMENT_SET_NO":999,"REV_AT_EPOCH":15160,"BSTAR":0.00065512761,"MEAN_MOTION_DOT":0.00020524,"MEAN_MOTION_DDOT":0},{"OBJECT_NAME":"STARLINK-31135","OBJECT_ID":"2024-011G","EPOCH":"2026-03-09T23:23:14.938080","MEAN_MOTION":15.30175302,"ECCENTRICITY":9.97e-5,"INCLINATION":53.1624,"RA_OF_ASC_NODE":10.2627,"ARG_OF_PERICENTER":88.6341,"MEAN_ANOMALY":271.4774,"EPHEMERIS_TYPE":0,"CLASSIFICATION_TYPE":"U","NORAD_CAT_ID":58771,"ELEMENT_SET_NO":999,"REV_AT_EPOCH":12034,"BSTAR":0.00011418661,"MEAN_MOTION_DOT":3.022e-5,"MEAN_MOTION_DDOT":0}]
